NORAD_CAT_ID,OBJECT_NAME,OBJECT_TYPE,EPOCH,MEAN_MOTION,ECCENTRICITY,INCLINATION,RA_OF_ASC_NODE,ARG_OF_PERICENTER,MEAN_ANOMALY,BSTAR,MEAN_MOTION_DOT,MEAN_MOTION_DDOT,TLE_LINE0,TLE_LINE1,TLE_LINE2,SEMIMAJOR_AXIS,PERIOD,APOGEE,PERIGEE,DECAYED
52117.0,STARLINK-3738,PAYLOAD,2023-04-11 05:47:34,15.08845039,0.0001201,53.2145,173.1255,97.1291,262.9837,0.00016086,2.273e-05,0.0,0 STARLINK-3738,1 52117U 22029AF  23101.24137158  .00002273  00000-0  16086-3 0  9997,2 52117  53.2145 173.1255 0001201  97.1291 262.9837 15.08845039 60258,6917.865,95.437,540.561,538.899,0.0
52117.0,STARLINK-3738,PAYLOAD,2023-04-11 12:09:06,15.08854197,0.0001165,53.215,171.9364,97.0232,263.0892,0.0002041,2.963e-05,0.0,0 STARLINK-3738,1 52117U 22029AF  23101.50632626  .00002963  00000-0  20410-3 0  9998,2 52117  53.2150 171.9364 0001165  97.0232 263.0892 15.08854197 60296,6917.837,95.437,540.508,538.896,0.0
52117.0,STARLINK-3738,PAYLOAD,2023-04-11 15:19:52,15.08855925,0.000124,53.2143,171.3405,96.5723,263.5411,0.0002577,3.818e-05,0.0,0 STARLINK-3738,1 52117U 22029AF  23101.63880423  .00003818  00000-0  25770-3 0  9996,2 52117  53.2143 171.3405 0001240  96.5723 263.5411 15.08855925 60316,6917.832,95.437,540.555,538.839,0.0
52117.0,STARLINK-3738,PAYLOAD,2023-04-12 04:02:58,15.08835894,0.0001136,53.2147,168.963,98.7339,261.3782,-0.00013453,-2.428e-05,0.0,0 STARLINK-3738,1 52117U 22029AF  23102.16873138 -.00002428  00000-0 -13453-3 0  9993,2 52117  53.2147 168.9630 0001136  98.7339 261.3782 15.08835894 60391,6917.893,95.438,540.544,538.972,0.0
52117.0,STARLINK-3738,PAYLOAD,2023-04-12 11:59:54,15.08840151,0.0001192,53.2145,167.4761,96.4896,263.6231,-2.062e-05,-6.16e-06,0.0,0 STARLINK-3738,1 52117U 22029AF  23102.49993057 -.00000616  00000-0 -20620-4 0  9994,2 52117  53.2145 167.4761 0001192  96.4896 263.6231 15.08840151 60445,6917.88,95.438,540.57,538.92,0.0
52117.0,STARLINK-3738,PAYLOAD,2023-04-13 10:15:18,15.08834144,0.0001032,53.2134,163.3117,87.5716,272.5394,0.00012336,1.676e-05,0.0,0 STARLINK-3738,1 52117U 22029AF  23103.42729715  .00001676  00000-0  12336-3 0  9995,2 52117  53.2134 163.3117 0001032  87.5716 272.5394 15.08834144 60587,6917.898,95.438,540.477,539.049,0.0
52117.0,STARLINK-3738,PAYLOAD,2023-04-14 10:06:05,15.08847382,0.0001249,53.2139,158.8515,82.9738,277.1396,0.00049152,7.545e-05,0.0,0 STARLINK-3738,1 52117U 22029AF  23104.42089929  .00007545  00000-0  49152-3 0  9999,2 52117  53.2139 158.8515 0001249  82.9738 277.1396 15.08847382 60734,6917.858,95.437,540.587,538.859,0.0
52117.0,STARLINK-3738,PAYLOAD,2023-04-14 14:52:14,15.08857513,0.0001374,53.2146,157.9596,81.0625,279.0523,0.0007632,0.00011885,0.0,0 STARLINK-3738,1 52117U 22029AF  23104.61961699  .00011885  00000-0  76320-3 0  9992,2 52117  53.2146 157.9596 0001374  81.0625 279.0523 15.08857513 60768,6917.827,95.436,540.642,538.741,0.0
52117.0,STARLINK-3738,PAYLOAD,2023-04-15 09:56:52,15.08850599,0.0001304,53.2155,154.3954,108.3514,251.762,0.00041645,6.348e-05,0.0,0 STARLINK-3738,1 52117U 22029AF  23105.41449665  .00006348  00000-0  41645-3 0  9995,2 52117  53.2155 154.3954 0001304 108.3514 251.7620 15.08850599 60885,6917.848,95.437,540.615,538.811,0.0
52117.0,STARLINK-3738,PAYLOAD,2023-04-15 14:43:01,15.08857336,0.0001342,53.2147,153.498,94.4217,265.6928,0.00075476,0.0001175,0.0,0 STARLINK-3738,1 52117U 22029AF  23105.61321537  .00011750  00000-0  75476-3 0  9996,2 52117  53.2147 153.4980 0001342  94.4217 265.6928 15.08857336 60917,6917.827,95.436,540.621,538.764,0.0
52117.0,STARLINK-3738,PAYLOAD,2023-04-16 03:26:07,15.08837644,0.0001435,53.2149,151.119,100.1131,260.0023,0.00054427,8.384e-05,0.0,0 STARLINK-3738,1 52117U 22029AF  23106.14313956  .00008384  00000-0  54427-3 0  9993,2 52117  53.2149 151.1190 0001435 100.1131 260.0023 15.08837644 60993,6917.888,95.438,540.745,538.76,0.0
52117.0,STARLINK-3738,PAYLOAD,2023-04-16 08:12:16,15.08840513,0.0001341,53.2152,150.2268,94.8329,265.2816,0.00083625,0.00013046,0.0,0 STARLINK-3738,1 52117U 22029AF  23106.34186113  .00013046  00000-0  83625-3 0  9991,2 52117  53.2152 150.2268 0001341  94.8329 265.2816 15.08840513 61028,6917.879,95.438,540.672,538.816,0.0
52117.0,STARLINK-3738,PAYLOAD,2023-04-16 19:19:58,15.08833728,9.04e-05,53.2153,148.1471,164.1988,195.9032,0.00016451,2.331e-05,0.0,0 STARLINK-3738,1 52117U 22029AF  23106.80553979  .00002331  00000-0  16451-3 0  9998,2 52117  53.2153 148.1471 0000904 164.1988 195.9032 15.08833728 61093,6917.9,95.438,540.39,539.139,0.0
52117.0,STARLINK-3738,PAYLOAD,2023-04-17 11:13:50,15.08849661,0.0001303,53.2148,145.172,93.9344,266.1797,0.0011337,0.00017806,0.0,0 STARLINK-3738,1 52117U 22029AF  23107.46794372  .00017806  00000-0  11337-2 0  9995,2 52117  53.2148 145.1720 0001303  93.9344 266.1797 15.08849661 61193,6917.851,95.437,540.617,538.814,0.0
52117.0,STARLINK-3738,PAYLOAD,2023-04-17 19:10:45,15.08845109,9.35e-05,53.2147,143.685,101.2529,258.8568,0.00059905,9.26e-05,0.0,0 STARLINK-3738,1 52117U 22029AF  23107.79914292  .00009260  00000-0  59905-3 0  9995,2 52117  53.2147 143.6850 0000935 101.2529 258.8568 15.08845109 61240,6917.865,95.437,540.377,539.083,0.0
52117.0,STARLINK-3738,PAYLOAD,2023-04-18 11:04:37,15.08846477,0.0001319,53.2139,140.7107,86.6856,273.4287,0.00032002,4.81e-05,0.0,0 STARLINK-3738,1 52117U 22029AF  23108.46154298  .00004810  00000-0  32002-3 0  9997,2 52117  53.2139 140.7107 0001319  86.6856 273.4287 15.08846477 61341,6917.861,95.437,540.638,538.813,0.0
52117.0,STARLINK-3738,PAYLOAD,2023-04-18 19:01:33,15.08843221,0.000143,53.2149,139.2236,81.3923,278.7231,0.00017596,2.514e-05,0.0,0 STARLINK-3738,1 52117U 22029AF  23108.79274398  .00002514  00000-0  17596-3 0  9997,2 52117  53.2149 139.2236 0001430  81.3923 278.7231 15.08843221 61395,6917.871,95.437,540.725,538.746,0.0
52117.0,STARLINK-3738,PAYLOAD,2023-04-19 10:55:24,15.08840225,0.0001397,53.214,136.2502,80.0355,280.0795,7.7658e-05,9.48e-06,0.0,0 STARLINK-3738,1 52117U 22029AF  23109.45514567  .00000948  00000-0  77658-4 0  9991,2 52117  53.2140 136.2502 0001397  80.0355 280.0795 15.08840225 61499,6917.88,95.438,540.711,538.778,0.0
52117.0,STARLINK-3738,PAYLOAD,2023-04-19 14:06:10,15.08843262,0.0001513,53.2148,135.6543,83.0965,277.0199,0.00013771,1.905e-05,0.0,0 STARLINK-3738,1 52117U 22029AF  23109.58762477  .00001905  00000-0  13771-3 0  9999,2 52117  53.2148 135.6543 0001513  83.0965 277.0199 15.08843262 61516,6917.87,95.437,540.782,538.689,0.0
52117.0,STARLINK-3738,PAYLOAD,2023-04-20 09:10:48,15.0884023,0.000158,53.2153,132.0845,75.3052,284.8115,6.5634e-05,7.57e-06,0.0,0 STARLINK-3738,1 52117U 22029AF  23110.38250822  .00000757  00000-0  65634-4 0  9995,2 52117  53.2153 132.0845 0001580  75.3052 284.8115 15.08840230 61632,6917.88,95.438,540.838,538.652,0.0
52117.0,STARLINK-3738,PAYLOAD,2023-04-20 18:43:07,15.08839605,0.0001285,53.2142,130.3017,84.2926,275.8212,4.1051e-05,3.65e-06,0.0,0 STARLINK-3738,1 52117U 22029AF  23110.77994669  .00000365  00000-0  41051-4 0  9994,2 52117  53.2142 130.3017 0001285  84.2926 275.8212 15.08839605 61691,6917.882,95.438,540.636,538.858,0.0
52117.0,STARLINK-3738,PAYLOAD,2023-04-21 12:12:22,15.08840373,0.0001278,53.2143,127.0297,95.8331,264.2806,9.1802e-05,1.173e-05,0.0,0 STARLINK-3738,1 52117U 22029AF  23111.50858911  .00001173  00000-0  91802-4 0  9992,2 52117  53.2143 127.0297 0001278  95.8331 264.2806 15.08840373 61803,6917.879,95.438,540.628,538.86,0.0
52117.0,STARLINK-3738,PAYLOAD,2023-04-21 18:33:54,15.08841338,0.0001236,53.2159,125.8407,90.8518,269.2616,4.6054e-05,4.45e-06,0.0,0 STARLINK-3738,1 52117U 22029AF  23111.77354972  .00000445  00000-0  46054-4 0  9999,2 52117  53.2159 125.8407 0001236  90.8518 269.2616 15.08841338 61845,6917.876,95.437,540.596,538.886,0.0
52117.0,STARLINK-3738,PAYLOAD,2023-04-22 12:03:08,15.08850075,0.0001299,53.2162,122.5707,118.3389,241.7734,0.00012231,1.66e-05,0.0,0 STARLINK-3738,1 52117U 22029AF  23112.50218203  .00001660  00000-0  12231-3 0  9996,2 52117  53.2162 122.5707 0001299 118.3389 241.7734 15.08850075 61953,6917.85,95.437,540.613,538.816,0.0
52117.0,STARLINK-3738,PAYLOAD,2023-04-23 10:18:35,15.0881603,0.0001254,53.2149,118.4072,103.9913,256.1219,-0.00018517,-3.232e-05,0.0,0 STARLINK-3738,1 52117U 22029AF  23113.42957286 -.00003232  00000-0 -18517-3 0  9991,2 52117  53.2149 118.4072 0001254 103.9913 256.1219 15.08816030 62098,6917.954,95.439,540.686,538.951,0.0
52117.0,STARLINK-3738,PAYLOAD,2023-04-24 11:44:43,15.08852525,0.0001394,53.2151,113.6504,92.3435,267.7716,0.00030897,4.634e-05,0.0,0 STARLINK-3738,1 52117U 22029AF  23114.48939691  .00004634  00000-0  30897-3 0  9998,2 52117  53.2151 113.6504 0001394  92.3435 267.7716 15.08852525 62250,6917.842,95.437,540.671,538.743,0.0
52117.0,STARLINK-3738,PAYLOAD,2023-04-25 10:00:07,15.08864565,0.0001407,53.2159,109.4863,86.3255,273.7898,0.00046974,7.201e-05,0.0,0 STARLINK-3738,1 52117U 22029AF  23115.41674873  .00007201  00000-0  46974-3 0  9996,2 52117  53.2159 109.4863 0001407  86.3255 273.7898 15.08864565 62397,6917.805,95.436,540.644,538.697,0.0
52117.0,STARLINK-3738,PAYLOAD,2023-04-26 11:26:18,15.08834115,0.00012,53.2157,104.7283,100.8644,259.2483,-0.00022916,-3.932e-05,0.0,0 STARLINK-3738,1 52117U 22029AF  23116.47659733 -.00003932  00000-0 -22916-3 0  9990,2 52117  53.2157 104.7283 0001200 100.8644 259.2483 15.08834115 62559,6917.898,95.438,540.594,538.933,0.0
52117.0,STARLINK-3738,PAYLOAD,2023-04-26 16:12:27,15.08835168,0.0001306,53.2163,103.8369,90.9203,269.1939,-0.00014434,-2.584e-05,0.0,0 STARLINK-3738,1 52117U 22029AF  23116.67531856 -.00002584  00000-0 -14434-3 0  9995,2 52117  53.2163 103.8369 0001306  90.9203 269.1939 15.08835168 62586,6917.895,95.438,540.664,538.857,0.0
52117.0,STARLINK-3738,PAYLOAD,2023-04-27 11:17:05,15.08843521,0.0001186,53.2157,100.2693,96.8899,263.2228,0.00022846,3.35e-05,0.0,0 STARLINK-3738,1 52117U 22029AF  23117.47019904  .00003350  00000-0  22846-3 0  9995,2 52117  53.2157 100.2693 0001186  96.8899 263.2228 15.08843521 62704,6917.87,95.437,540.555,538.914,0.0
